[
    {
        "Altitude(m)": 607897.607873588,
        "Argument of Periapsis(deg)": 0.0,
        "Eccentricity": 0.0,
        "Inclination(deg)": 60.0,
        "Latitude(deg)": -14.292896396595902,
        "Longitude(deg)": 126.61874417146062,
        "Mean Anomaly(deg)": -16.363600000000037,
        "RAAN(deg)": 235.0,
        "Satellite Name": "Test1 1055",
        "Satellite Number": 1055,
        "Semi-Major Axis(m)": 6980739.136638005,
        "Time(s)": 0
    },
    {
        "Altitude(m)": 607750.8094293477,
        "Argument of Periapsis(deg)": 0.00010418945913296404,
        "Eccentricity": 0.0,
        "Inclination(deg)": 60.0,
        "Latitude(deg)": -13.758738012894874,
        "Longitude(deg)": 126.90581347733118,
        "Mean Anomaly(deg)": -15.743493854538185,
        "RAAN(deg)": 234.99957995086027,
        "Satellite Name": "Test1 1055",
        "Satellite Number": 1055,
        "Semi-Major Axis(m)": 6980739.136638005,
        "Time(s)": 10
    }
]